start=new Date('2022-04-03T00:00:00.000Z').valueOf();
sats=[{"RA_OF_ASC_NODE":"72.7853","CLASSIFICATION_TYPE":"U","APOAPSIS":"548.423","REF_FRAME":"TEME","MEAN_ANOMALY":"294.4687","SITE":"AFETR","CENTER_NAME":"EARTH","GP_ID":"200322825","FILE":"3385473","LAUNCH_DATE":"2021-04-29","INCLINATION":"53.0554","COUNTRY_CODE":"US","ELEMENT_SET_NO":"999","MEAN_MOTION_DOT":"-0.00002609","EPOCH":"2022-04-02T15:17:08.783808","NORAD_CAT_ID":"48322","ARG_OF_PERICENTER":"65.6482","OBJECT_TYPE":"PAYLOAD","MEAN_ELEMENT_THEORY":"SGP4","RCS_SIZE":"MEDIUM","BSTAR":"-0.00015630000000","TLE_LINE2":"2 48322  53.0554  72.7853 0001729  65.6482 294.4687 15.06395968 51430","REV_AT_EPOCH":"5143","MEAN_MOTION_DDOT":"0.0000000000000","TIME_SYSTEM":"UTC","SEMIMAJOR_AXIS":"6925.361","ECCENTRICITY":"0.00017290","DECAY_DATE":null,"MEAN_MOTION":"15.06395968","EPHEMERIS_TYPE":"0","PERIOD":"95.592","PERIAPSIS":"546.029","OBJECT_NAME":"STARLINK-2477","TLE_LINE1":"1 48322U 21036AY  22092.63690722 -.00002609  00000-0 -15630-3 0  9998","OBJECT_ID":"2021-036AY"},{"MEAN_MOTION_DOT":"-0.00000136","EPOCH":"2022-04-02T15:11:51.221472","NORAD_CAT_ID":"48323","LAUNCH_DATE":"2021-04-29","INCLINATION":"53.0533","COUNTRY_CODE":"US","ELEMENT_SET_NO":"999","ARG_OF_PERICENTER":"42.9267","OBJECT_TYPE":"PAYLOAD","MEAN_ANOMALY":"317.1873","REF_FRAME":"TEME","SITE":"AFETR","RA_OF_ASC_NODE":"72.8183","CLASSIFICATION_TYPE":"U","APOAPSIS":"548.568","CENTER_NAME":"EARTH","FILE":"3385473","GP_ID":"200323076","MEAN_MOTION":"15.06396592","EPHEMERIS_TYPE":"0","SEMIMAJOR_AXIS":"6925.359","ECCENTRICITY":"0.00019400","DECAY_DATE":null,"TLE_LINE1":"1 48323U 21036AZ  22092.63323173 -.00000136  00000-0  97481-5 0  9990","OBJECT_ID":"2021-036AZ","PERIOD":"95.592","PERIAPSIS":"545.880","OBJECT_NAME":"STARLINK-2515","BSTAR":"0.00000974810000","RCS_SIZE":"LARGE","MEAN_ELEMENT_THEORY":"SGP4","TLE_LINE2":"2 48323  53.0533  72.8183 0001940  42.9267 317.1873 15.06396592 51433","REV_AT_EPOCH":"5143","TIME_SYSTEM":"UTC","MEAN_MOTION_DDOT":"0.0000000000000"},{"ARG_OF_PERICENTER":"60.9377","OBJECT_TYPE":"PAYLOAD","MEAN_MOTION_DOT":"0.00000406","EPOCH":"2022-04-02T10:19:55.779744","NORAD_CAT_ID":"48324","LAUNCH_DATE":"2021-04-29","COUNTRY_CODE":"US","INCLINATION":"53.0530","ELEMENT_SET_NO":"999","CENTER_NAME":"EARTH","FILE":"3385473","GP_ID":"200323827","REF_FRAME":"TEME","MEAN_ANOMALY":"299.1761","SITE":"AFETR","RA_OF_ASC_NODE":"73.7264","CLASSIFICATION_TYPE":"U","APOAPSIS":"548.254","TLE_LINE1":"1 48324U 21036BA  22092.43050671  .00000406  00000-0  46159-4 0  9993","OBJECT_ID":"2021-036BA","PERIOD":"95.592","PERIAPSIS":"546.202","OBJECT_NAME":"STARLINK-2527","EPHEMERIS_TYPE":"0","MEAN_MOTION":"15.06395335","SEMIMAJOR_AXIS":"6925.363","ECCENTRICITY":"0.00014820","DECAY_DATE":null,"TIME_SYSTEM":"UTC","MEAN_MOTION_DDOT":"0.0000000000000","RCS_SIZE":"LARGE","MEAN_ELEMENT_THEORY":"SGP4","BSTAR":"0.00004615900000","TLE_LINE2":"2 48324  53.0530  73.7264 0001482  60.9377 299.1761 15.06395335 51398","REV_AT_EPOCH":"5139"},{"MEAN_ANOMALY":"319.5740","REF_FRAME":"TEME","SITE":"AFETR","RA_OF_ASC_NODE":"74.0500","CLASSIFICATION_TYPE":"U","APOAPSIS":"548.362","CENTER_NAME":"EARTH","GP_ID":"200322075","FILE":"3385473","MEAN_MOTION_DOT":"0.00000869","EPOCH":"2022-04-02T08:39:04.785984","NORAD_CAT_ID":"48325","LAUNCH_DATE":"2021-04-29","INCLINATION":"53.0554","COUNTRY_CODE":"US","ELEMENT_SET_NO":"999","ARG_OF_PERICENTER":"40.5371","OBJECT_TYPE":"PAYLOAD","RCS_SIZE":"LARGE","MEAN_ELEMENT_THEORY":"SGP4","BSTAR":"0.00007726900000","TLE_LINE2":"2 48325  53.0554  74.0500 0001636  40.5371 319.5740 15.06394843 51398","REV_AT_EPOCH":"5139","TIME_SYSTEM":"UTC","MEAN_MOTION_DDOT":"0.0000000000000","EPHEMERIS_TYPE":"0","MEAN_MOTION":"15.06394843","SEMIMAJOR_AXIS":"6925.364","ECCENTRICITY":"0.00016360","DECAY_DATE":null,"TLE_LINE1":"1 48325U 21036BB  22092.36047206  .00000869  00000-0  77269-4 0  9995","OBJECT_ID":"2021-036BB","PERIOD":"95.592","PERIAPSIS":"546.096","OBJECT_NAME":"STARLINK-2495"},{"OBJECT_ID":"2021-036BC","TLE_LINE1":"1 48326U 21036BC  22092.35678043 -.00000490  00000-0 -13985-4 0  9991","OBJECT_NAME":"STARLINK-2498","PERIOD":"95.592","PERIAPSIS":"546.150","EPHEMERIS_TYPE":"0","MEAN_MOTION":"15.06405739","DECAY_DATE":null,"ECCENTRICITY":"0.00015110","SEMIMAJOR_AXIS":"6925.331","TIME_SYSTEM":"UTC","MEAN_MOTION_DDOT":"0.0000000000000","REV_AT_EPOCH":"5139","TLE_LINE2":"2 48326  53.0552  74.0516 0001511  76.2592 283.8565 15.06405739 51392","MEAN_ELEMENT_THEORY":"SGP4","RCS_SIZE":"LARGE","BSTAR":"-0.00001398500000","OBJECT_TYPE":"PAYLOAD","ARG_OF_PERICENTER":"76.2592","NORAD_CAT_ID":"48326","EPOCH":"2022-04-02T08:33:45.829152","MEAN_MOTION_DOT":"-0.00000490","ELEMENT_SET_NO":"999","INCLINATION":"53.0552","COUNTRY_CODE":"US","LAUNCH_DATE":"2021-04-29","FILE":"3385473","GP_ID":"200322325","CENTER_NAME":"EARTH","SITE":"AFETR","REF_FRAME":"TEME","MEAN_ANOMALY":"283.8565","APOAPSIS":"548.242","CLASSIFICATION_TYPE":"U","RA_OF_ASC_NODE":"74.0516"},{"NORAD_CAT_ID":"48327","EPOCH":"2022-04-02T21:12:46.667808","MEAN_MOTION_DOT":"0.00001351","ELEMENT_SET_NO":"999","INCLINATION":"53.0550","COUNTRY_CODE":"US","LAUNCH_DATE":"2021-04-29","OBJECT_TYPE":"PAYLOAD","ARG_OF_PERICENTER":"61.5642","SITE":"AFETR","REF_FRAME":"TEME","MEAN_ANOMALY":"298.5523","APOAPSIS":"548.410","CLASSIFICATION_TYPE":"U","RA_OF_ASC_NODE":"71.6806","GP_ID":"200323577","FILE":"3385473","CENTER_NAME":"EARTH","MEAN_MOTION":"15.06404481","EPHEMERIS_TYPE":"0","DECAY_DATE":null,"ECCENTRICITY":"0.00017480","SEMIMAJOR_AXIS":"6925.335","OBJECT_ID":"2021-036BD","TLE_LINE1":"1 48327U 21036BD  22092.88387347  .00001351  00000-0  10959-3 0  9996","OBJECT_NAME":"STARLINK-2502","PERIOD":"95.592","PERIAPSIS":"545.989","REV_AT_EPOCH":"5147","TLE_LINE2":"2 48327  53.0550  71.6806 0001748  61.5642 298.5523 15.06404481 51470","BSTAR":"0.00010959000000","RCS_SIZE":"LARGE","MEAN_ELEMENT_THEORY":"SGP4","TIME_SYSTEM":"UTC","MEAN_MOTION_DDOT":"0.0000000000000"},{"MEAN_MOTION_DDOT":"0.0000000000000","TIME_SYSTEM":"UTC","RCS_SIZE":"LARGE","BSTAR":"-0.00004289800000","MEAN_ELEMENT_THEORY":"SGP4","TLE_LINE2":"2 48328  53.0544  71.7033 0001631  50.6146 309.4987 15.06402687 51478","REV_AT_EPOCH":"5147","PERIOD":"95.592","PERIAPSIS":"546.076","OBJECT_NAME":"STARLINK-2504","TLE_LINE1":"1 48328U 21036BE  22092.88018465 -.00000921  00000-0 -42898-4 0  9991","OBJECT_ID":"2021-036BE","SEMIMAJOR_AXIS":"6925.340","ECCENTRICITY":"0.00016310","DECAY_DATE":null,"EPHEMERIS_TYPE":"0","MEAN_MOTION":"15.06402687","CENTER_NAME":"EARTH","FILE":"3385473","GP_ID":"200323327","RA_OF_ASC_NODE":"71.7033","CLASSIFICATION_TYPE":"U","APOAPSIS":"548.335","MEAN_ANOMALY":"309.4987","REF_FRAME":"TEME","SITE":"AFETR","ARG_OF_PERICENTER":"50.6146","OBJECT_TYPE":"PAYLOAD","LAUNCH_DATE":"2021-04-29","COUNTRY_CODE":"US","INCLINATION":"53.0544","ELEMENT_SET_NO":"999","MEAN_MOTION_DOT":"-0.00000921","EPOCH":"2022-04-02T21:07:27.953760","NORAD_CAT_ID":"48328"},{"REV_AT_EPOCH":"5147","RCS_SIZE":"LARGE","MEAN_ELEMENT_THEORY":"SGP4","BSTAR":"-0.00002078900000","TLE_LINE2":"2 48329  53.0555  71.7301 0001538  54.7355 305.3777 15.06392260 51479","TIME_SYSTEM":"UTC","MEAN_MOTION_DDOT":"0.0000000000000","EPHEMERIS_TYPE":"0","MEAN_MOTION":"15.06392260","ECCENTRICITY":"0.00015380","DECAY_DATE":null,"SEMIMAJOR_AXIS":"6925.372","OBJECT_ID":"2021-036BF","TLE_LINE1":"1 48329U 21036BF  22092.87650267 -.00000591  00000-0 -20789-4 0  9991","PERIOD":"95.593","PERIAPSIS":"546.172","OBJECT_NAME":"STARLINK-2510","SITE":"AFETR","REF_FRAME":"TEME","MEAN_ANOMALY":"305.3777","APOAPSIS":"548.302","RA_OF_ASC_NODE":"71.7301","CLASSIFICATION_TYPE":"U","FILE":"3385473","GP_ID":"200322576","CENTER_NAME":"EARTH","NORAD_CAT_ID":"48329","MEAN_MOTION_DOT":"-0.00000591","EPOCH":"2022-04-02T21:02:09.830688","COUNTRY_CODE":"US","INCLINATION":"53.0555","ELEMENT_SET_NO":"999","LAUNCH_DATE":"2021-04-29","OBJECT_TYPE":"PAYLOAD","ARG_OF_PERICENTER":"54.7355"},{"MEAN_MOTION_DDOT":"0.0000000000000","TIME_SYSTEM":"UTC","REV_AT_EPOCH":"5147","TLE_LINE2":"2 48330  53.0533  71.7442 0001736  62.8767 297.2399 15.06402670 51476","RCS_SIZE":"LARGE","MEAN_ELEMENT_THEORY":"SGP4","BSTAR":"0.00011500000000","OBJECT_NAME":"STARLINK-2501","PERIOD":"95.592","PERIAPSIS":"546.003","OBJECT_ID":"2021-036BG","TLE_LINE1":"1 48330U 21036BG  22092.87281531  .00001432  00000-0  11500-3 0  9990","DECAY_DATE":null,"ECCENTRICITY":"0.00017360","SEMIMAJOR_AXIS":"6925.340","EPHEMERIS_TYPE":"0","MEAN_MOTION":"15.06402670","GP_ID":"200322826","FILE":"3385473","CENTER_NAME":"EARTH","APOAPSIS":"548.408","CLASSIFICATION_TYPE":"U","RA_OF_ASC_NODE":"71.7442","SITE":"AFETR","REF_FRAME":"TEME","MEAN_ANOMALY":"297.2399","OBJECT_TYPE":"PAYLOAD","ARG_OF_PERICENTER":"62.8767","ELEMENT_SET_NO":"999","INCLINATION":"53.0533","COUNTRY_CODE":"US","LAUNCH_DATE":"2021-04-29","NORAD_CAT_ID":"48330","EPOCH":"2022-04-02T20:56:51.242784","MEAN_MOTION_DOT":"0.00001432"},{"PERIOD":"95.592","PERIAPSIS":"546.052","OBJECT_NAME":"STARLINK-2514","OBJECT_ID":"2021-036BH","TLE_LINE1":"1 48331U 21036BH  22092.67008781  .00000049  00000-0  22171-4 0  9993","ECCENTRICITY":"0.00016830","DECAY_DATE":null,"SEMIMAJOR_AXIS":"6925.353","EPHEMERIS_TYPE":"0","MEAN_MOTION":"15.06398609","MEAN_MOTION_DDOT":"0.0000000000000","TIME_SYSTEM":"UTC","REV_AT_EPOCH":"5144","RCS_SIZE":"LARGE","BSTAR":"0.00002217100000","MEAN_ELEMENT_THEORY":"SGP4","TLE_LINE2":"2 48331  53.0548  72.6582 0001683  51.4859 308.6281 15.06398609 51445","OBJECT_TYPE":"PAYLOAD","ARG_OF_PERICENTER":"51.4859","INCLINATION":"53.0548","COUNTRY_CODE":"US","ELEMENT_SET_NO":"999","LAUNCH_DATE":"2021-04-29","NORAD_CAT_ID":"48331","MEAN_MOTION_DOT":"0.00000049","EPOCH":"2022-04-02T16:04:55.586784","FILE":"3385473","GP_ID":"200323077","CENTER_NAME":"EARTH","APOAPSIS":"548.383","RA_OF_ASC_NODE":"72.6582","CLASSIFICATION_TYPE":"U","SITE":"AFETR","REF_FRAME":"TEME","MEAN_ANOMALY":"308.6281"}];
